[
    {
        "Altitude(m)": 575886.3032954665,
        "Argument of Periapsis(deg)": -0.007534386927657468,
        "Eccentricity": 0.0,
        "Inclination(deg)": 97.0,
        "Latitude(deg)": 72.59404556949303,
        "Longitude(deg)": -3.6864359847350583,
        "Mean Anomaly(deg)": 73.95304775639585,
        "RAAN(deg)": 120.00198235120617,
        "Satellite Name": "Starlink Shell 3 1826",
        "Satellite Number": 1826,
        "Semi-Major Axis(m)": 6938478.169268562,
        "Time(s)": 190
    },
    {
        "Altitude(m)": 575966.4733743625,
        "Argument of Periapsis(deg)": -0.007930933608060494,
        "Eccentricity": 0.0,
        "Inclination(deg)": 97.0,
        "Latitude(deg)": 73.16178403648233,
        "Longitude(deg)": -4.599650653606551,
        "Mean Anomaly(deg)": 74.57852395410092,
        "RAAN(deg)": 120.00208668548017,
        "Satellite Name": "Starlink Shell 3 1826",
        "Satellite Number": 1826,
        "Semi-Major Axis(m)": 6938478.169268562,
        "Time(s)": 200
    },
    {
        "Altitude(m)": 576043.830988723,
        "Argument of Periapsis(deg)": -0.008327480288463517,
        "Eccentricity": 0.0,
        "Inclination(deg)": 97.0,
        "Latitude(deg)": 73.72556270789504,
        "Longitude(deg)": -5.571594018227677,
        "Mean Anomaly(deg)": 75.20400015180591,
        "RAAN(deg)": 120.00219101975418,
        "Satellite Name": "Starlink Shell 3 1826",
        "Satellite Number": 1826,
        "Semi-Major Axis(m)": 6938478.169268562,
        "Time(s)": 210
    },
    {
        "Altitude(m)": 576118.3322006804,
        "Argument of Periapsis(deg)": -0.008724026968866542,
        "Eccentricity": 0.0,
        "Inclination(deg)": 97.0,
        "Latitude(deg)": 74.28496113948917,
        "Longitude(deg)": -6.608111277553427,
        "Mean Anomaly(deg)": 75.82947634951095,
        "RAAN(deg)": 120.00229535402818,
        "Satellite Name": "Starlink Shell 3 1826",
        "Satellite Number": 1826,
        "Semi-Major Axis(m)": 6938478.169268562,
        "Time(s)": 220
    },
    {
        "Altitude(m)": 576189.9347290893,
        "Argument of Periapsis(deg)": -0.009120573649269567,
        "Eccentricity": 0.0,
        "Inclination(deg)": 97.0,
        "Latitude(deg)": 74.83950018833461,
        "Longitude(deg)": -7.715764183697533,
        "Mean Anomaly(deg)": 76.45495254721602,
        "RAAN(deg)": 120.0023996883022,
        "Satellite Name": "Starlink Shell 3 1826",
        "Satellite Number": 1826,
        "Semi-Major Axis(m)": 6938478.169268562,
        "Time(s)": 230
    },
    {
        "Altitude(m)": 576258.5979695411,
        "Argument of Periapsis(deg)": -0.009517120329672592,
        "Eccentricity": 0.0,
        "Inclination(deg)": 97.0,
        "Latitude(deg)": 75.38863229619874,
        "Longitude(deg)": -8.901924787168232,
        "Mean Anomaly(deg)": 77.08042874492108,
        "RAAN(deg)": 120.0025040225762,
        "Satellite Name": "Starlink Shell 3 1826",
        "Satellite Number": 1826,
        "Semi-Major Axis(m)": 6938478.169268562,
        "Time(s)": 240
    },
    {
        "Altitude(m)": 576324.2830135075,
        "Argument of Periapsis(deg)": -0.009913667010075618,
        "Eccentricity": 0.0,
        "Inclination(deg)": 97.0,
        "Latitude(deg)": 75.93173001214883,
        "Longitude(deg)": -10.174880359240872,
        "Mean Anomaly(deg)": 77.70590494262612,
        "RAAN(deg)": 120.00260835685022,
        "Satellite Name": "Starlink Shell 3 1826",
        "Satellite Number": 1826,
        "Semi-Major Axis(m)": 6938478.169268562,
        "Time(s)": 250
    },
    {
        "Altitude(m)": 576386.9526667147,
        "Argument of Periapsis(deg)": -0.010310213690478642,
        "Eccentricity": 0.0,
        "Inclination(deg)": 97.0,
        "Latitude(deg)": 76.4680724484999,
        "Longitude(deg)": -11.543945356073403,
        "Mean Anomaly(deg)": 78.33138114033113,
        "RAAN(deg)": 120.00271269112422,
        "Satellite Name": "Starlink Shell 3 1826",
        "Satellite Number": 1826,
        "Semi-Major Axis(m)": 6938478.169268562,
        "Time(s)": 260
    },
    {
        "Altitude(m)": 576446.5714666853,
        "Argument of Periapsis(deg)": -0.010706760370881667,
        "Eccentricity": 0.0,
        "Inclination(deg)": 97.0,
        "Latitude(deg)": 76.99682933461068,
        "Longitude(deg)": -13.019579300939034,
        "Mean Anomaly(deg)": 78.95685733803619,
        "RAAN(deg)": 120.00281702539824,
        "Satellite Name": "Starlink Shell 3 1826",
        "Satellite Number": 1826,
        "Semi-Major Axis(m)": 6938478.169268562,
        "Time(s)": 270
    },
    {
        "Altitude(m)": 576503.1056994403,
        "Argument of Periapsis(deg)": -0.011103307051284692,
        "Eccentricity": 0.0,
        "Inclination(deg)": 97.0,
        "Latitude(deg)": 77.51704231906524,
        "Longitude(deg)": -14.613507055727613,
        "Mean Anomaly(deg)": 79.58233353574126,
        "RAAN(deg)": 120.00292135967224,
        "Satellite Name": "Starlink Shell 3 1826",
        "Satellite Number": 1826,
        "Semi-Major Axis(m)": 6938478.169268562,
        "Time(s)": 280
    },
    {
        "Altitude(m)": 576556.5234153846,
        "Argument of Periapsis(deg)": -0.011499853731687715,
        "Eccentricity": 0.0,
        "Inclination(deg)": 97.0,
        "Latitude(deg)": 78.02760318862322,
        "Longitude(deg)": -16.33882973434706,
        "Mean Anomaly(deg)": 80.20780973344628,
        "RAAN(deg)": 120.00302569394627,
        "Satellite Name": "Starlink Shell 3 1826",
        "Satellite Number": 1826,
        "Semi-Major Axis(m)": 6938478.169268562,
        "Time(s)": 290
    },
    {
        "Altitude(m)": 576606.7944443334,
        "Argument of Periapsis(deg)": -0.011896400412090741,
        "Eccentricity": 0.0,
        "Inclination(deg)": 97.0,
        "Latitude(deg)": 78.52722874810188,
        "Longitude(deg)": -18.210113571791023,
        "Mean Anomaly(deg)": 80.83328593115132,
        "RAAN(deg)": 120.00313002822024,
        "Satellite Name": "Starlink Shell 3 1826",
        "Satellite Number": 1826,
        "Semi-Major Axis(m)": 6938478.169268562,
        "Time(s)": 300
    },
    {
        "Altitude(m)": 576653.8904097086,
        "Argument of Periapsis(deg)": -0.012292947092493765,
        "Eccentricity": 0.0,
        "Inclination(deg)": 97.0,
        "Latitude(deg)": 79.01443227988248,
        "Longitude(deg)": -20.243436146908895,
        "Mean Anomaly(deg)": 81.45876212885636,
        "RAAN(deg)": 120.00323436249427,
        "Satellite Name": "Starlink Shell 3 1826",
        "Satellite Number": 1826,
        "Semi-Major Axis(m)": 6938478.169268562,
        "Time(s)": 310
    },
    {
        "Altitude(m)": 576697.7847418729,
        "Argument of Periapsis(deg)": -0.012689493772896788,
        "Eccentricity": 0.0,
        "Inclination(deg)": 97.0,
        "Latitude(deg)": 79.48749183592956,
        "Longitude(deg)": -22.456353779829886,
        "Mean Anomaly(deg)": 82.08423832656139,
        "RAAN(deg)": 120.00333869676827,
        "Satellite Name": "Starlink Shell 3 1826",
        "Satellite Number": 1826,
        "Semi-Major Axis(m)": 6938478.169268562,
        "Time(s)": 320
    },
    {
        "Altitude(m)": 576738.4526906188,
        "Argument of Periapsis(deg)": -0.013086040453299813,
        "Eccentricity": 0.0,
        "Inclination(deg)": 97.0,
        "Latitude(deg)": 79.94441619521277,
        "Longitude(deg)": -24.867743787030147,
        "Mean Anomaly(deg)": 82.70971452426646,
        "RAAN(deg)": 120.00344303104228,
        "Satellite Name": "Starlink Shell 3 1826",
        "Satellite Number": 1826,
        "Semi-Major Axis(m)": 6938478.169268562,
        "Time(s)": 330
    },
    {
        "Altitude(m)": 576775.8713367708,
        "Argument of Periapsis(deg)": -0.01348258713370284,
        "Eccentricity": 0.0,
        "Inclination(deg)": 97.0,
        "Latitude(deg)": 80.38291025771827,
        "Longitude(deg)": -27.497457089651245,
        "Mean Anomaly(deg)": 83.3351907219715,
        "RAAN(deg)": 120.00354736531628,
        "Satellite Name": "Starlink Shell 3 1826",
        "Satellite Number": 1826,
        "Semi-Major Axis(m)": 6938478.169268562,
        "Time(s)": 340
    },
    {
        "Altitude(m)": 576810.0196029785,
        "Argument of Periapsis(deg)": -0.013879133814105863,
        "Eccentricity": 0.0,
        "Inclination(deg)": 97.0,
        "Latitude(deg)": 80.80034307133614,
        "Longitude(deg)": -30.365692110259598,
        "Mean Anomaly(deg)": 83.96066691967653,
        "RAAN(deg)": 120.0036516995903,
        "Satellite Name": "Starlink Shell 3 1826",
        "Satellite Number": 1826,
        "Semi-Major Axis(m)": 6938478.169268562,
        "Time(s)": 350
    },
    {
        "Altitude(m)": 576840.8782635606,
        "Argument of Periapsis(deg)": -0.01427568049450889,
        "Eccentricity": 0.0,
        "Inclination(deg)": 97.0,
        "Latitude(deg)": 81.19372370551243,
        "Longitude(deg)": -33.49198828340669,
        "Mean Anomaly(deg)": 84.58614311738157,
        "RAAN(deg)": 120.0037560338643,
        "Satellite Name": "Starlink Shell 3 1826",
        "Satellite Number": 1826,
        "Semi-Major Axis(m)": 6938478.169268562,
        "Time(s)": 360
    },
    {
        "Altitude(m)": 576868.4299535556,
        "Argument of Periapsis(deg)": -0.014672227174911913,
        "Eccentricity": 0.0,
        "Inclination(deg)": 97.0,
        "Latitude(deg)": 81.55969280074433,
        "Longitude(deg)": -36.8937330551032,
        "Mean Anomaly(deg)": 85.21161931508661,
        "RAAN(deg)": 120.00386036813833,
        "Satellite Name": "Starlink Shell 3 1826",
        "Satellite Number": 1826,
        "Semi-Major Axis(m)": 6938478.169268562,
        "Time(s)": 370
    }
]